METOP-C                 
1 43689U 18087A   26061.78253107  .00000136  00000+0  82189-4 0  9993
2 43689  98.6781 123.2723 0002154 109.5565 250.5846 14.21494278379713
GEO-KOMPSAT-2A          
1 43823U 18100A   26060.97179095 -.00000362  00000+0  00000+0 0  9991
2 43823   0.0180  67.6811 0001336 333.4250 236.7399  1.00270368 26557
METEOR-M2 2             
1 44387U 19038A   26061.89077928 -.00000144  00000+0 -42342-4 0  9991
2 44387  98.9070  47.6484 0001243  15.8640 344.2577 14.24329693346163
ARKTIKA-M 1             
1 47719U 21016A   26061.82287547 -.00000108  00000+0  00000+0 0  9994
2 47719  63.2036  72.8571 7242815 269.4536  15.2019  2.00620868 36654
FENGYUN 3E              
1 49008U 21062A   26061.86671080 -.00000255  00000+0 -99433-4 0  9998
2 49008  98.7506  66.4565 0002497  54.5415 305.5994 14.19891427241497
GOES 18                 
1 51850U 22021A   26061.77267117  .00000080  00000+0  00000+0 0  9995
2 51850   0.0258  75.1977 0000548 314.4181 272.0750  1.00271247  5520
NOAA 21 (JPSS-2)        
1 54234U 22150A   26061.81465529  .00000098  00000+0  67225-4 0  9995
2 54234  98.7547   2.1596 0002485 118.8497 241.2928 14.19549983171459
METEOSAT-12 (MTG-I1)    
1 54743U 22170C   26061.73072127 -.00000023  00000+0  00000+0 0  9993
2 54743   0.7438  28.9118 0001928 281.1614 113.1972  1.00274508 11912
TIANMU-1 03             
1 55973U 23039A   26061.81542750  .00021784  00000+0  48092-3 0  9990
2 55973  97.5164 231.9036 0003956 121.2513 238.9122 15.43888390164406
TIANMU-1 04             
1 55974U 23039B   26061.84070214  .00020817  00000+0  45343-3 0  9997
2 55974  97.5095 231.0918 0004638 117.5843 242.5876 15.44293494164416
TIANMU-1 05             
1 55975U 23039C   26061.85656503  .00020280  00000+0  44882-3 0  9991
2 55975  97.5142 231.6000 0003692 138.5244 221.6284 15.43831582164398
TIANMU-1 06             
1 55976U 23039D   26061.84063715  .00020715  00000+0  45081-3 0  9993
2 55976  97.5152 232.1176 0004036 134.0596 226.0985 15.44323532164416
FENGYUN 3G              
1 56232U 23055A   26061.88350088  .00035159  00000+0  53456-3 0  9996
2 56232  49.9932 174.1446 0010689 342.8456  17.2149 15.54099829163487
METEOR-M2 3             
1 57166U 23091A   26061.86158166  .00000035  00000+0  34032-4 0  9999
2 57166  98.6229 118.9501 0005019 114.6976 245.4726 14.24036842139385
TIANMU-1 07             
1 57399U 23101A   26061.84448610  .00008758  00000+0  31169-3 0  9990
2 57399  97.2741 114.9460 0004694 147.3644 212.7888 15.29182030145391
TIANMU-1 08             
1 57400U 23101B   26061.81455363  .00000469  00000+0  19083-4 0  9996
2 57400  97.2730 114.6952 0006290 145.3494 214.8157 15.29213455145387
TIANMU-1 09             
1 57401U 23101C   26060.81433519  .00000691  00000+0  26964-4 0  9998
2 57401  97.2691 113.1975 0005114 156.2312 203.9165 15.29179768145237
