[{"OBJECT_NAME":"METOP-C","OBJECT_ID":"2018-087A","EPOCH":"2026-03-02T18:46:50.684448","MEAN_MOTION":14.21494278,"ECCENTRICITY":0.0002154,"INCLINATION":98.6781,"RA_OF_ASC_NODE":123.2723,"ARG_OF_PERICENTER":109.5565,"MEAN_ANOMALY":250.5846,"EPHEMERIS_TYPE":0,"CLASSIFICATION_TYPE":"U","NORAD_CAT_ID":43689,"ELEMENT_SET_NO":999,"REV_AT_EPOCH":37971,"BSTAR":8.2189e-5,"MEAN_MOTION_DOT":1.36e-6,"MEAN_MOTION_DDOT":0},{"OBJECT_NAME":"GEO-KOMPSAT-2A","OBJECT_ID":"2018-100A","EPOCH":"2026-03-01T23:19:22.738080","MEAN_MOTION":1.00270368,"ECCENTRICITY":0.0001336,"INCLINATION":0.018,"RA_OF_ASC_NODE":67.6811,"ARG_OF_PERICENTER":333.425,"MEAN_ANOMALY":236.7399,"EPHEMERIS_TYPE":0,"CLASSIFICATION_TYPE":"U","NORAD_CAT_ID":43823,"ELEMENT_SET_NO":999,"REV_AT_EPOCH":2655,"BSTAR":0,"MEAN_MOTION_DOT":-3.62e-6,"MEAN_MOTION_DDOT":0},{"OBJECT_NAME":"METEOR-M2 2","OBJECT_ID":"2019-038A","EPOCH":"2026-03-02T21:22:43.329792","MEAN_MOTION":14.24329693,"ECCENTRICITY":0.0001243,"INCLINATION":98.907,"RA_OF_ASC_NODE":47.6484,"ARG_OF_PERICENTER":15.864,"MEAN_ANOMALY":344.2577,"EPHEMERIS_TYPE":0,"CLASSIFICATION_TYPE":"U","NORAD_CAT_ID":44387,"ELEMENT_SET_NO":999,"REV_AT_EPOCH":34616,"BSTAR":-4.2342e-5,"MEAN_MOTION_DOT":-1.44e-6,"MEAN_MOTION_DDOT":0},{"OBJECT_NAME":"ARKTIKA-M 1","OBJECT_ID":"2021-016A","EPOCH":"2026-03-02T19:44:56.440608","MEAN_MOTION":2.00620868,"ECCENTRICITY":0.7242815,"INCLINATION":63.2036,"RA_OF_ASC_NODE":72.8571,"ARG_OF_PERICENTER":269.4536,"MEAN_ANOMALY":15.2019,"EPHEMERIS_TYPE":0,"CLASSIFICATION_TYPE":"U","NORAD_CAT_ID":47719,"ELEMENT_SET_NO":999,"REV_AT_EPOCH":3665,"BSTAR":0,"MEAN_MOTION_DOT":-1.08e-6,"MEAN_MOTION_DDOT":0},{"OBJECT_NAME":"FENGYUN 3E","OBJECT_ID":"2021-062A","EPOCH":"2026-03-02T20:48:03.813120","MEAN_MOTION":14.19891427,"ECCENTRICITY":0.0002497,"INCLINATION":98.7506,"RA_OF_ASC_NODE":66.4565,"ARG_OF_PERICENTER":54.5415,"MEAN_ANOMALY":305.5994,"EPHEMERIS_TYPE":0,"CLASSIFICATION_TYPE":"U","NORAD_CAT_ID":49008,"ELEMENT_SET_NO":999,"REV_AT_EPOCH":24149,"BSTAR":-9.9433e-5,"MEAN_MOTION_DOT":-2.55e-6,"MEAN_MOTION_DDOT":0},{"OBJECT_NAME":"GOES 18","OBJECT_ID":"2022-021A","EPOCH":"2026-03-02T18:32:38.789088","MEAN_MOTION":1.00271247,"ECCENTRICITY":5.48e-5,"INCLINATION":0.0258,"RA_OF_ASC_NODE":75.1977,"ARG_OF_PERICENTER":314.4181,"MEAN_ANOMALY":272.075,"EPHEMERIS_TYPE":0,"CLASSIFICATION_TYPE":"U","NORAD_CAT_ID":51850,"ELEMENT_SET_NO":999,"REV_AT_EPOCH":552,"BSTAR":0,"MEAN_MOTION_DOT":8.0e-7,"MEAN_MOTION_DDOT":0},{"OBJECT_NAME":"NOAA 21 (JPSS-2)","OBJECT_ID":"2022-150A","EPOCH":"2026-03-02T19:33:06.217056","MEAN_MOTION":14.19549983,"ECCENTRICITY":0.0002485,"INCLINATION":98.7547,"RA_OF_ASC_NODE":2.1596,"ARG_OF_PERICENTER":118.8497,"MEAN_ANOMALY":241.2928,"EPHEMERIS_TYPE":0,"CLASSIFICATION_TYPE":"U","NORAD_CAT_ID":54234,"ELEMENT_SET_NO":999,"REV_AT_EPOCH":17145,"BSTAR":6.7225e-5,"MEAN_MOTION_DOT":9.8e-7,"MEAN_MOTION_DDOT":0},{"OBJECT_NAME":"METEOSAT-12 (MTG-I1)","OBJECT_ID":"2022-170C","EPOCH":"2026-03-02T17:32:14.317728","MEAN_MOTION":1.00274508,"ECCENTRICITY":0.0001928,"INCLINATION":0.7438,"RA_OF_ASC_NODE":28.9118,"ARG_OF_PERICENTER":281.1614,"MEAN_ANOMALY":113.1972,"EPHEMERIS_TYPE":0,"CLASSIFICATION_TYPE":"U","NORAD_CAT_ID":54743,"ELEMENT_SET_NO":999,"REV_AT_EPOCH":1191,"BSTAR":0,"MEAN_MOTION_DOT":-2.3e-7,"MEAN_MOTION_DDOT":0},{"OBJECT_NAME":"TIANMU-1 03","OBJECT_ID":"2023-039A","EPOCH":"2026-03-02T19:34:12.936000","MEAN_MOTION":15.4388839,"ECCENTRICITY":0.0003956,"INCLINATION":97.5164,"RA_OF_ASC_NODE":231.9036,"ARG_OF_PERICENTER":121.2513,"MEAN_ANOMALY":238.9122,"EPHEMERIS_TYPE":0,"CLASSIFICATION_TYPE":"U","NORAD_CAT_ID":55973,"ELEMENT_SET_NO":999,"REV_AT_EPOCH":16440,"BSTAR":0.00048092,"MEAN_MOTION_DOT":0.00021784,"MEAN_MOTION_DDOT":0},{"OBJECT_NAME":"TIANMU-1 04","OBJECT_ID":"2023-039B","EPOCH":"2026-03-02T20:10:36.664896","MEAN_MOTION":15.44293494,"ECCENTRICITY":0.0004638,"INCLINATION":97.5095,"RA_OF_ASC_NODE":231.0918,"ARG_OF_PERICENTER":117.5843,"MEAN_ANOMALY":242.5876,"EPHEMERIS_TYPE":0,"CLASSIFICATION_TYPE":"U","NORAD_CAT_ID":55974,"ELEMENT_SET_NO":999,"REV_AT_EPOCH":16441,"BSTAR":0.00045343,"MEAN_MOTION_DOT":0.00020817,"MEAN_MOTION_DDOT":0},{"OBJECT_NAME":"TIANMU-1 05","OBJECT_ID":"2023-039C","EPOCH":"2026-03-02T20:33:27.218592","MEAN_MOTION":15.43831582,"ECCENTRICITY":0.0003692,"INCLINATION":97.5142,"RA_OF_ASC_NODE":231.6,"ARG_OF_PERICENTER":138.5244,"MEAN_ANOMALY":221.6284,"EPHEMERIS_TYPE":0,"CLASSIFICATION_TYPE":"U","NORAD_CAT_ID":55975,"ELEMENT_SET_NO":999,"REV_AT_EPOCH":16439,"BSTAR":0.00044882,"MEAN_MOTION_DOT":0.0002028,"MEAN_MOTION_DDOT":0},{"OBJECT_NAME":"TIANMU-1 06","OBJECT_ID":"2023-039D","EPOCH":"2026-03-02T20:10:31.049760","MEAN_MOTION":15.44323532,"ECCENTRICITY":0.0004036,"INCLINATION":97.5152,"RA_OF_ASC_NODE":232.1176,"ARG_OF_PERICENTER":134.0596,"MEAN_ANOMALY":226.0985,"EPHEMERIS_TYPE":0,"CLASSIFICATION_TYPE":"U","NORAD_CAT_ID":55976,"ELEMENT_SET_NO":999,"REV_AT_EPOCH":16441,"BSTAR":0.00045081,"MEAN_MOTION_DOT":0.00020715,"MEAN_MOTION_DDOT":0},{"OBJECT_NAME":"FENGYUN 3G","OBJECT_ID":"2023-055A","EPOCH":"2026-03-02T21:12:14.476032","MEAN_MOTION":15.54099829,"ECCENTRICITY":0.0010689,"INCLINATION":49.9932,"RA_OF_ASC_NODE":174.1446,"ARG_OF_PERICENTER":342.8456,"MEAN_ANOMALY":17.2149,"EPHEMERIS_TYPE":0,"CLASSIFICATION_TYPE":"U","NORAD_CAT_ID":56232,"ELEMENT_SET_NO":999,"REV_AT_EPOCH":16348,"BSTAR":0.00053456,"MEAN_MOTION_DOT":0.00035159,"MEAN_MOTION_DDOT":0},{"OBJECT_NAME":"METEOR-M2 3","OBJECT_ID":"2023-091A","EPOCH":"2026-03-02T20:40:40.655424","MEAN_MOTION":14.24036842,"ECCENTRICITY":0.0005019,"INCLINATION":98.6229,"RA_OF_ASC_NODE":118.9501,"ARG_OF_PERICENTER":114.6976,"MEAN_ANOMALY":245.4726,"EPHEMERIS_TYPE":0,"CLASSIFICATION_TYPE":"U","NORAD_CAT_ID":57166,"ELEMENT_SET_NO":999,"REV_AT_EPOCH":13938,"BSTAR":3.4032e-5,"MEAN_MOTION_DOT":3.5e-7,"MEAN_MOTION_DDOT":0},{"OBJECT_NAME":"TIANMU-1 07","OBJECT_ID":"2023-101A","EPOCH":"2026-03-02T20:16:03.599040","MEAN_MOTION":15.2918203,"ECCENTRICITY":0.0004694,"INCLINATION":97.2741,"RA_OF_ASC_NODE":114.946,"ARG_OF_PERICENTER":147.3644,"MEAN_ANOMALY":212.7888,"EPHEMERIS_TYPE":0,"CLASSIFICATION_TYPE":"U","NORAD_CAT_ID":57399,"ELEMENT_SET_NO":999,"REV_AT_EPOCH":14539,"BSTAR":0.00031169,"MEAN_MOTION_DOT":8.758e-5,"MEAN_MOTION_DDOT":0},{"OBJECT_NAME":"TIANMU-1 08","OBJECT_ID":"2023-101B","EPOCH":"2026-03-02T19:32:57.433632","MEAN_MOTION":15.29213455,"ECCENTRICITY":0.000629,"INCLINATION":97.273,"RA_OF_ASC_NODE":114.6952,"ARG_OF_PERICENTER":145.3494,"MEAN_ANOMALY":214.8157,"EPHEMERIS_TYPE":0,"CLASSIFICATION_TYPE":"U","NORAD_CAT_ID":57400,"ELEMENT_SET_NO":999,"REV_AT_EPOCH":14538,"BSTAR":1.9083e-5,"MEAN_MOTION_DOT":4.69e-6,"MEAN_MOTION_DDOT":0},{"OBJECT_NAME":"TIANMU-1 09","OBJECT_ID":"2023-101C","EPOCH":"2026-03-01T19:32:38.560416","MEAN_MOTION":15.29179768,"ECCENTRICITY":0.00051148,"INCLINATION":97.2691,"RA_OF_ASC_NODE":113.1975,"ARG_OF_PERICENTER":156.2312,"MEAN_ANOMALY":203.9165,"EPHEMERIS_TYPE":0,"CLASSIFICATION_TYPE":"U","NORAD_CAT_ID":57401,"ELEMENT_SET_NO":999,"REV_AT_EPOCH":14523,"BSTAR":2.6964044e-5,"MEAN_MOTION_DOT":6.91e-6,"MEAN_MOTION_DDOT":0}]
